CCSDS_OMM_VERS = 2.0
CREATION_DATE  = 
ORIGINATOR     = 

OBJECT_NAME    = STARLINK-36031
OBJECT_ID      = 2025-270F
CENTER_NAME    = EARTH
REF_FRAME      = TEME
TIME_SYSTEM    = UTC
MEAN_ELEMENT_THEORY = SGP/SGP4

EPOCH          = 2025-12-04T16:01:12.652320
MEAN_MOTION    = 15.74918460
ECCENTRICITY   = .00066028
INCLINATION    = 42.9978
RA_OF_ASC_NODE = 240.6163
ARG_OF_PERICENTER = 319.9037
MEAN_ANOMALY   = 40.1344

EPHEMERIS_TYPE = 0
CLASSIFICATION_TYPE = U
NORAD_CAT_ID   = 66593
ELEMENT_SET_NO = 999
REV_AT_EPOCH   = 308
BSTAR          = .34719624E-2
MEAN_MOTION_DOT = .567567E-2
MEAN_MOTION_DDOT = 0

CCSDS_OMM_VERS = 2.0
CREATION_DATE  = 
ORIGINATOR     = 

OBJECT_NAME    = STARLINK-36032
OBJECT_ID      = 2025-270G
CENTER_NAME    = EARTH
REF_FRAME      = TEME
TIME_SYSTEM    = UTC
MEAN_ELEMENT_THEORY = SGP/SGP4

EPOCH          = 2025-12-04T03:46:47.463456
MEAN_MOTION    = 15.77380004
ECCENTRICITY   = .00146576
INCLINATION    = 42.9975
RA_OF_ASC_NODE = 243.6707
ARG_OF_PERICENTER = 280.4782
MEAN_ANOMALY   = 79.4436

EPHEMERIS_TYPE = 0
CLASSIFICATION_TYPE = U
NORAD_CAT_ID   = 66594
ELEMENT_SET_NO = 999
REV_AT_EPOCH   = 281
BSTAR          = .22053405E-2
MEAN_MOTION_DOT = .395318E-2
MEAN_MOTION_DDOT = 0

CCSDS_OMM_VERS = 2.0
CREATION_DATE  = 
ORIGINATOR     = 

OBJECT_NAME    = STARLINK-35711
OBJECT_ID      = 2025-270H
CENTER_NAME    = EARTH
REF_FRAME      = TEME
TIME_SYSTEM    = UTC
MEAN_ELEMENT_THEORY = SGP/SGP4

EPOCH          = 2025-12-04T14:29:25.270944
MEAN_MOTION    = 15.75147228
ECCENTRICITY   = .00026087
INCLINATION    = 42.9983
RA_OF_ASC_NODE = 240.9958
ARG_OF_PERICENTER = 243.4660
MEAN_ANOMALY   = 116.5941

EPHEMERIS_TYPE = 0
CLASSIFICATION_TYPE = U
NORAD_CAT_ID   = 66595
ELEMENT_SET_NO = 999
REV_AT_EPOCH   = 318
BSTAR          = .23185585E-2
MEAN_MOTION_DOT = .373675E-2
MEAN_MOTION_DDOT = 0

CCSDS_OMM_VERS = 2.0
CREATION_DATE  = 
ORIGINATOR     = 

OBJECT_NAME    = STARLINK-35811
OBJECT_ID      = 2025-270J
CENTER_NAME    = EARTH
REF_FRAME      = TEME
TIME_SYSTEM    = UTC
MEAN_ELEMENT_THEORY = SGP/SGP4

EPOCH          = 2025-12-04T15:59:44.301408
MEAN_MOTION    = 15.75427926
ECCENTRICITY   = .00046165
INCLINATION    = 42.9987
RA_OF_ASC_NODE = 240.6055
ARG_OF_PERICENTER = 284.7362
MEAN_ANOMALY   = 75.2995

EPHEMERIS_TYPE = 0
CLASSIFICATION_TYPE = U
NORAD_CAT_ID   = 66596
ELEMENT_SET_NO = 999
REV_AT_EPOCH   = 319
BSTAR          = -.86061754E-2
MEAN_MOTION_DOT = -.1194988E-1
MEAN_MOTION_DDOT = 0

CCSDS_OMM_VERS = 2.0
CREATION_DATE  = 
ORIGINATOR     = 

OBJECT_NAME    = STARLINK-35820
OBJECT_ID      = 2025-270K
CENTER_NAME    = EARTH
REF_FRAME      = TEME
TIME_SYSTEM    = UTC
MEAN_ELEMENT_THEORY = SGP/SGP4

EPOCH          = 2025-12-04T15:54:56.043360
MEAN_MOTION    = 15.78717724
ECCENTRICITY   = .00199747
INCLINATION    = 43.0025
RA_OF_ASC_NODE = 240.5800
ARG_OF_PERICENTER = 286.3097
MEAN_ANOMALY   = 73.5577

EPHEMERIS_TYPE = 0
CLASSIFICATION_TYPE = U
NORAD_CAT_ID   = 66597
ELEMENT_SET_NO = 999
REV_AT_EPOCH   = 319
BSTAR          = .39060844E-2
MEAN_MOTION_DOT = .781523E-2
MEAN_MOTION_DDOT = 0

CCSDS_OMM_VERS = 2.0
CREATION_DATE  = 
ORIGINATOR     = 

OBJECT_NAME    = STARLINK-35981
OBJECT_ID      = 2025-270L
CENTER_NAME    = EARTH
REF_FRAME      = TEME
TIME_SYSTEM    = UTC
MEAN_ELEMENT_THEORY = SGP/SGP4

EPOCH          = 2025-12-04T15:58:16.579488
MEAN_MOTION    = 15.75425850
ECCENTRICITY   = .00054005
INCLINATION    = 42.9991
RA_OF_ASC_NODE = 240.5970
ARG_OF_PERICENTER = 302.4449
MEAN_ANOMALY   = 57.5898

EPHEMERIS_TYPE = 0
CLASSIFICATION_TYPE = U
NORAD_CAT_ID   = 66598
ELEMENT_SET_NO = 999
REV_AT_EPOCH   = 292
BSTAR          = -.87257872E-2
MEAN_MOTION_DOT = -.1210213E-1
MEAN_MOTION_DDOT = 0

CCSDS_OMM_VERS = 2.0
CREATION_DATE  = 
ORIGINATOR     = 

OBJECT_NAME    = STARLINK-35930
OBJECT_ID      = 2025-270M
CENTER_NAME    = EARTH
REF_FRAME      = TEME
TIME_SYSTEM    = UTC
MEAN_ELEMENT_THEORY = SGP/SGP4

EPOCH          = 2025-12-04T00:45:37.693728
MEAN_MOTION    = 15.75348253
ECCENTRICITY   = .00019861
INCLINATION    = 42.9984
RA_OF_ASC_NODE = 244.4479
ARG_OF_PERICENTER = 267.8069
MEAN_ANOMALY   = 92.2573

EPHEMERIS_TYPE = 0
CLASSIFICATION_TYPE = U
NORAD_CAT_ID   = 66599
ELEMENT_SET_NO = 999
REV_AT_EPOCH   = 298
BSTAR          = -.39524111E-2
MEAN_MOTION_DOT = -.575796E-2
MEAN_MOTION_DDOT = 0

CCSDS_OMM_VERS = 2.0
CREATION_DATE  = 
ORIGINATOR     = 

OBJECT_NAME    = STARLINK-35980
OBJECT_ID      = 2025-270N
CENTER_NAME    = EARTH
REF_FRAME      = TEME
TIME_SYSTEM    = UTC
MEAN_ELEMENT_THEORY = SGP/SGP4

EPOCH          = 2025-12-04T03:46:22.938816
MEAN_MOTION    = 15.79349544
ECCENTRICITY   = .00188251
INCLINATION    = 43.0002
RA_OF_ASC_NODE = 243.6684
ARG_OF_PERICENTER = 318.1688
MEAN_ANOMALY   = 41.7743

EPHEMERIS_TYPE = 0
CLASSIFICATION_TYPE = U
NORAD_CAT_ID   = 66600
ELEMENT_SET_NO = 999
REV_AT_EPOCH   = 290
BSTAR          = .25460562E-2
MEAN_MOTION_DOT = .507436E-2
MEAN_MOTION_DDOT = 0

CCSDS_OMM_VERS = 2.0
CREATION_DATE  = 
ORIGINATOR     = 

OBJECT_NAME    = STARLINK-35978
OBJECT_ID      = 2025-270P
CENTER_NAME    = EARTH
REF_FRAME      = TEME
TIME_SYSTEM    = UTC
MEAN_ELEMENT_THEORY = SGP/SGP4

EPOCH          = 2025-12-04T02:15:56.284416
MEAN_MOTION    = 15.75298164
ECCENTRICITY   = .00071106
INCLINATION    = 42.9977
RA_OF_ASC_NODE = 244.0577
ARG_OF_PERICENTER = 214.9985
MEAN_ANOMALY   = 145.0417

EPHEMERIS_TYPE = 0
CLASSIFICATION_TYPE = U
NORAD_CAT_ID   = 66601
ELEMENT_SET_NO = 999
REV_AT_EPOCH   = 283
BSTAR          = -.21837609E-2
MEAN_MOTION_DOT = -.327668E-2
MEAN_MOTION_DDOT = 0

CCSDS_OMM_VERS = 2.0
CREATION_DATE  = 
ORIGINATOR     = 

OBJECT_NAME    = STARLINK-36050
OBJECT_ID      = 2025-270Q
CENTER_NAME    = EARTH
REF_FRAME      = TEME
TIME_SYSTEM    = UTC
MEAN_ELEMENT_THEORY = SGP/SGP4

EPOCH          = 2025-12-03T23:11:57.245856
MEAN_MOTION    = 15.81066635
ECCENTRICITY   = .00264193
INCLINATION    = 42.9973
RA_OF_ASC_NODE = 244.8203
ARG_OF_PERICENTER = 271.6989
MEAN_ANOMALY   = 88.0856

EPHEMERIS_TYPE = 0
CLASSIFICATION_TYPE = U
NORAD_CAT_ID   = 66602
ELEMENT_SET_NO = 999
REV_AT_EPOCH   = 287
BSTAR          = .3628424E-1
MEAN_MOTION_DOT = .9497794E-1
MEAN_MOTION_DDOT = 0

CCSDS_OMM_VERS = 2.0
CREATION_DATE  = 
ORIGINATOR     = 

OBJECT_NAME    = STARLINK-36048
OBJECT_ID      = 2025-270R
CENTER_NAME    = EARTH
REF_FRAME      = TEME
TIME_SYSTEM    = UTC
MEAN_ELEMENT_THEORY = SGP/SGP4

EPOCH          = 2025-12-03T21:40:34.816800
MEAN_MOTION    = 15.77266061
ECCENTRICITY   = .00104068
INCLINATION    = 42.9981
RA_OF_ASC_NODE = 245.2035
ARG_OF_PERICENTER = 263.8687
MEAN_ANOMALY   = 96.0997

EPHEMERIS_TYPE = 0
CLASSIFICATION_TYPE = U
NORAD_CAT_ID   = 66603
ELEMENT_SET_NO = 999
REV_AT_EPOCH   = 286
BSTAR          = .29394154E-2
MEAN_MOTION_DOT = .531136E-2
MEAN_MOTION_DDOT = 0

CCSDS_OMM_VERS = 2.0
CREATION_DATE  = 
ORIGINATOR     = 

OBJECT_NAME    = STARLINK-35977
OBJECT_ID      = 2025-270S
CENTER_NAME    = EARTH
REF_FRAME      = TEME
TIME_SYSTEM    = UTC
MEAN_ELEMENT_THEORY = SGP/SGP4

EPOCH          = 2025-12-03T11:01:46.597440
MEAN_MOTION    = 15.77554299
ECCENTRICITY   = .00039426
INCLINATION    = 42.9996
RA_OF_ASC_NODE = 247.8966
ARG_OF_PERICENTER = 347.7852
MEAN_ANOMALY   = 12.2922

EPHEMERIS_TYPE = 0
CLASSIFICATION_TYPE = U
NORAD_CAT_ID   = 66604
ELEMENT_SET_NO = 999
REV_AT_EPOCH   = 289
BSTAR          = .71417663E-3
MEAN_MOTION_DOT = .123952E-2
MEAN_MOTION_DDOT = 0

CCSDS_OMM_VERS = 2.0
CREATION_DATE  = 
ORIGINATOR     = 

OBJECT_NAME    = STARLINK-36052
OBJECT_ID      = 2025-270T
CENTER_NAME    = EARTH
REF_FRAME      = TEME
TIME_SYSTEM    = UTC
MEAN_ELEMENT_THEORY = SGP/SGP4

EPOCH          = 2025-12-04T11:21:56.539584
MEAN_MOTION    = 15.75113305
ECCENTRICITY   = .00018758
INCLINATION    = 42.9989
RA_OF_ASC_NODE = 241.7404
ARG_OF_PERICENTER = 67.5989
MEAN_ANOMALY   = 292.5079

EPHEMERIS_TYPE = 0
CLASSIFICATION_TYPE = U
NORAD_CAT_ID   = 66605
ELEMENT_SET_NO = 999
REV_AT_EPOCH   = 305
BSTAR          = .17267182E-2
MEAN_MOTION_DOT = .274463E-2
MEAN_MOTION_DDOT = 0

CCSDS_OMM_VERS = 2.0
CREATION_DATE  = 
ORIGINATOR     = 

OBJECT_NAME    = STARLINK-36063
OBJECT_ID      = 2025-270U
CENTER_NAME    = EARTH
REF_FRAME      = TEME
TIME_SYSTEM    = UTC
MEAN_ELEMENT_THEORY = SGP/SGP4

EPOCH          = 2025-12-04T02:13:26.401152
MEAN_MOTION    = 15.70932101
ECCENTRICITY   = .0031868
INCLINATION    = 42.9978
RA_OF_ASC_NODE = 244.0430
ARG_OF_PERICENTER = 182.8429
MEAN_ANOMALY   = 177.2262

EPHEMERIS_TYPE = 0
CLASSIFICATION_TYPE = U
NORAD_CAT_ID   = 66606
ELEMENT_SET_NO = 999
REV_AT_EPOCH   = 299
BSTAR          = -.56770882E-1
MEAN_MOTION_DOT = -.6178149E-1
MEAN_MOTION_DDOT = 0

CCSDS_OMM_VERS = 2.0
CREATION_DATE  = 
ORIGINATOR     = 

OBJECT_NAME    = STARLINK-35993
OBJECT_ID      = 2025-270V
CENTER_NAME    = EARTH
REF_FRAME      = TEME
TIME_SYSTEM    = UTC
MEAN_ELEMENT_THEORY = SGP/SGP4

EPOCH          = 2025-12-04T00:42:13.697280
MEAN_MOTION    = 15.75244198
ECCENTRICITY   = .00015476
INCLINATION    = 42.9984
RA_OF_ASC_NODE = 244.4293
ARG_OF_PERICENTER = 280.1184
MEAN_ANOMALY   = 79.9511

EPHEMERIS_TYPE = 0
CLASSIFICATION_TYPE = U
NORAD_CAT_ID   = 66607
ELEMENT_SET_NO = 999
REV_AT_EPOCH   = 288
BSTAR          = -.24272821E-2
MEAN_MOTION_DOT = -.361066E-2
MEAN_MOTION_DDOT = 0

